NORAD_CAT_ID,OBJECT_NAME,OBJECT_TYPE,EPOCH,MEAN_MOTION,ECCENTRICITY,INCLINATION,RA_OF_ASC_NODE,ARG_OF_PERICENTER,MEAN_ANOMALY,BSTAR,MEAN_MOTION_DOT,MEAN_MOTION_DDOT,TLE_LINE0,TLE_LINE1,TLE_LINE2,SEMIMAJOR_AXIS,PERIOD,APOGEE,PERIGEE,DECAYED
49424.0,STARLINK-3135,PAYLOAD,2022-12-28 08:11:06,15.0885715,0.0002064,53.2154,69.5607,51.1743,308.9433,0.00027404,4.078e-05,0.0,0 STARLINK-3135,1 49424U 21104S   22362.34104187  .00004078  00000-0  27404-3 0  9993,2 49424  53.2154  69.5607 0002064  51.1743 308.9433 15.08857150 63471,6917.828,95.436,541.121,538.265,0.0
49424.0,STARLINK-3135,PAYLOAD,2022-12-28 14:32:38,15.08839584,0.0002278999999999,53.2158,68.3728,42.949,317.168,-0.00011217,-2.073e-05,0.0,0 STARLINK-3135,1 49424U 21104S   22362.60600590 -.00002073  00000-0 -11217-3 0  9991,2 49424  53.2158  68.3728 0002279  42.9490 317.1680 15.08839584 63513,6917.882,95.438,541.323,538.17,0.0
49424.0,STARLINK-3135,PAYLOAD,2022-12-29 12:48:03,15.088173499999998,0.0001699999999999,53.2164,64.208,44.801,315.3119,-0.00043466,-7.195e-05,0.0,0 STARLINK-3135,1 49424U 21104S   22363.53337847 -.00007195  00000-0 -43466-3 0  9997,2 49424  53.2164  64.2080 0001700  44.8010 315.3119 15.08817350 63652,6917.95,95.439,540.991,538.639,0.0
49424.0,STARLINK-3135,PAYLOAD,2022-12-30 12:38:51,15.08830917,0.000164,53.2168,59.7479,43.5725,316.5396,0.00022559,3.303e-05,0.0,0 STARLINK-3135,1 49424U 21104S   22364.52698808  .00003303  00000-0  22559-3 0  9999,2 49424  53.2168  59.7479 0001640  43.5725 316.5396 15.08830917 63800,6917.908,95.438,540.908,538.639,0.0
49424.0,STARLINK-3135,PAYLOAD,2022-12-30 20:35:47,15.08849021,0.0001648,53.2167,58.2609,43.3304,316.7817,0.00066424,0.00010302,0.0,0 STARLINK-3135,1 49424U 21104S   22364.85818618  .00010302  00000-0  66424-3 0  9994,2 49424  53.2167  58.2609 0001648  43.3304 316.7817 15.08849021 63858,6917.853,95.437,540.8580000000002,538.578,0.0
49424.0,STARLINK-3135,PAYLOAD,2022-12-31 14:05:00,15.08884561,0.0001654,53.2164,54.9897,42.3615,317.7505,0.00086951,0.00013594,0.0,0 STARLINK-3135,1 49424U 21104S   22365.58681090  .00013594  00000-0  86951-3 0  9990,2 49424  53.2164  54.9897 0001654  42.3615 317.7505 15.08884561 63963,6917.744000000002,95.435,540.753,538.465,0.0
49424.0,STARLINK-3135,PAYLOAD,2022-12-31 20:26:33,15.08866979,0.000233,53.216,53.7983,53.3577,306.7629,0.00016352,2.317e-05,0.0,0 STARLINK-3135,1 49424U 21104S   22365.85177157  .00002317  00000-0  16352-3 0  9993,2 49424  53.2160  53.7983 0002330  53.3577 306.7629 15.08866979 64007,6917.7980000000025,95.436,541.275,538.0509999999998,0.0
49424.0,STARLINK-3135,PAYLOAD,2023-01-01 04:23:28,15.0885272,0.0001464,53.2164,52.3133,36.9293,323.18,-0.00032626,-5.478e-05,0.0,0 STARLINK-3135,1 49424U 21104S   23001.18296752 -.00005478  00000-0 -32626-3 0  9995,2 49424  53.2164  52.3133 0001464  36.9293 323.1800 15.08852720 64050,6917.842,95.437,540.719,538.694,0.0
49424.0,STARLINK-3135,PAYLOAD,2023-01-01 12:20:24,15.08822641,0.0001778,53.2162,50.8277,39.185,320.9271,0.00052133,8.015e-05,0.0,0 STARLINK-3135,1 49424U 21104S   23001.51417662  .00008015  00000-0  52133-3 0  9990,2 49424  53.2162  50.8277 0001778  39.1850 320.9271 15.08822641 64104,6917.933000000001,95.439,541.028,538.568,0.0
49424.0,STARLINK-3135,PAYLOAD,2023-01-01 20:17:21,15.08814994,0.0001771,53.216,49.3404,43.0776,317.0355,0.00066817,0.00010355,0.0,0 STARLINK-3135,1 49424U 21104S   23001.84538316  .00010355  00000-0  66817-3 0  9990,2 49424  53.2160  49.3404 0001771  43.0776 317.0355 15.08814994 63078,6917.956999999999,95.439,541.047,538.597,0.0
49424.0,STARLINK-3135,PAYLOAD,2023-01-02 09:00:26,15.08839069,0.0001817,53.216,46.9616,43.6787,316.4349,0.0013212,0.00020801,0.0,0 STARLINK-3135,1 49424U 21104S   23002.37530664  .00020801  00000-0  13212-2 0  9994,2 49424  53.2160  46.9616 0001817  43.6787 316.4349 15.08839069 63150,6917.8830000000025,95.438,541.005,538.491,0.0
49424.0,STARLINK-3135,PAYLOAD,2023-01-02 20:08:08,15.08846143,0.0001854,53.2161,44.8798,44.1947,315.9193,0.00081075,0.00012641,0.0,0 STARLINK-3135,1 49424U 21104S   23002.83898658  .00012641  00000-0  81075-3 0  9991,2 49424  53.2161  44.8798 0001854  44.1947 315.9193 15.08846143 64304,6917.861999999999,95.437,541.009,538.444,0.0
49424.0,STARLINK-3135,PAYLOAD,2023-01-03 12:01:59,15.08846351,0.0001823,53.2173,41.9069,39.2719,320.8405,0.0003116,4.675e-05,0.0,0 STARLINK-3135,1 49424U 21104S   23003.50138445  .00004675  00000-0  31160-3 0  9995,2 49424  53.2173  41.9069 0001823  39.2719 320.8405 15.08846351 64407,6917.861,95.437,540.987,538.465,0.0
49424.0,STARLINK-3135,PAYLOAD,2023-01-04 08:41:59,15.08858088,0.0002061999999999,53.2175,38.0416,44.4038,315.7119,0.00056957,8.793e-05,0.0,0 STARLINK-3135,1 49424U 21104S   23004.36249994  .00008793  00000-0  56957-3 0  9998,2 49424  53.2175  38.0416 0002062  44.4038 315.7119 15.08858088 63459,6917.825,95.436,541.117,538.264,0.0
49424.0,STARLINK-3135,PAYLOAD,2023-01-05 08:32:46,15.08851385,0.0001574,53.219,33.5805,26.4561,333.6511,4.7219e-05,4.64e-06,0.0,0 STARLINK-3135,1 49424U 21104S   23005.35608970  .00000464  00000-0  47219-4 0  9990,2 49424  53.2190  33.5805 0001574  26.4561 333.6511 15.08851385 64680,6917.846,95.437,540.799,538.622,0.0
49424.0,STARLINK-3135,PAYLOAD,2023-01-06 08:23:33,15.08825074,0.0001636999999999,53.2171,29.1181,33.5307,326.5789,-0.00053992,-8.867e-05,0.0,0 STARLINK-3135,1 49424U 21104S   23006.34969071 -.00008867  00000-0 -53992-3 0  9993,2 49424  53.2171  29.1181 0001637  33.5307 326.5789 15.08825074 64835,6917.926,95.438,540.923,538.659,0.0
49424.0,STARLINK-3135,PAYLOAD,2023-01-07 01:52:49,15.08816481,0.0001783,53.2173,25.8492,53.1779,306.9377,-0.00015509,-2.754e-05,0.0,0 STARLINK-3135,1 49424U 21104S   23007.07834545 -.00002754  00000-0 -15509-3 0  9992,2 49424  53.2173  25.8492 0001783  53.1779 306.9377 15.08816481 63867,6917.951999999998,95.439,541.0509999999998,538.5840000000002,0.0
49424.0,STARLINK-3135,PAYLOAD,2023-01-07 11:25:08,15.08833587,0.0001783,53.217,24.0644,48.3305,311.784,0.00073212,0.00011381,0.0,0 STARLINK-3135,1 49424U 21104S   23007.47578944  .00011381  00000-0  73212-3 0  9993,2 49424  53.2170  24.0644 0001783  48.3305 311.7840 15.08833587 65008,6917.9,95.438,540.998,538.5319999999998,0.0
49424.0,STARLINK-3135,PAYLOAD,2023-01-07 17:46:40,15.08838239,0.0001734,53.2166,22.8749,45.9321,314.1813,0.00088491,0.00013823,0.0,0 STARLINK-3135,1 49424U 21104S   23007.74075197  .00013823  00000-0  88491-3 0  9993,2 49424  53.2166  22.8749 0001734  45.9321 314.1813 15.08838239 63961,6917.886,95.438,540.95,538.5509999999998,0.0
49424.0,STARLINK-3135,PAYLOAD,2023-01-08 11:15:55,15.08856042,0.0001739,53.2176,19.604,49.101000000000006,311.0133,0.00079595,0.00012408,0.0,0 STARLINK-3135,1 49424U 21104S   23008.46938863  .00012408  00000-0  79595-3 0  9994,2 49424  53.2176  19.6040 0001739  49.1010 311.0133 15.08856042 64072,6917.831,95.437,540.899,538.493,0.0
49424.0,STARLINK-3135,PAYLOAD,2023-01-08 17:37:28,15.08849109,0.000304,53.2167,18.414,63.2975,296.8328,0.00066844,0.00010369,0.0,0 STARLINK-3135,1 49424U 21104S   23008.73435430  .00010369  00000-0  66844-3 0  9993,2 49424  53.2167  18.4140 0003040  63.2975 296.8328 15.08849109 65190,6917.853,95.437,541.821,537.615,0.0
49424.0,STARLINK-3135,PAYLOAD,2023-01-09 01:34:23,15.08883951,0.0003939,53.2157,16.9304,61.9766,298.1624,0.0016687,0.00026404,0.0,0 STARLINK-3135,1 49424U 21104S   23009.06554744  .00026404  00000-0  16687-2 0  9996,2 49424  53.2157  16.9304 0003939  61.9766 298.1624 15.08883951 65247,6917.746,95.435,542.336,536.886,0.0
49424.0,STARLINK-3135,PAYLOAD,2023-01-09 17:28:14,15.08849186,0.000171,53.2167,13.9534,46.0181,314.0952,0.0004774,7.32e-05,0.0,0 STARLINK-3135,1 49424U 21104S   23009.72794694  .00007320  00000-0  47740-3 0  9990,2 49424  53.2167  13.9534 0001710  46.0181 314.0952 15.08849186 65345,6917.852,95.437,540.9,538.534,0.0
49424.0,STARLINK-3135,PAYLOAD,2023-01-10 09:22:05,15.08847922,0.0001919,53.2166,10.979,51.4314,308.685,0.0006167,9.542e-05,0.0,0 STARLINK-3135,1 49424U 21104S   23010.39034721  .00009542  00000-0  61670-3 0  9999,2 49424  53.2166  10.9790 0001919  51.4314 308.6850 15.08847922 65447,6917.856,95.437,541.049,538.394,0.0
49424.0,STARLINK-3135,PAYLOAD,2023-01-10 17:19:02,15.08830938,0.0002021,53.2142,9.4934,54.3632,305.7548,0.00058087,8.966e-05,0.0,0 STARLINK-3135,1 49424U 21104S   23010.72155301  .00008966  00000-0  58087-3 0  9991,2 49424  53.2142   9.4934 0002021  54.3632 305.7548 15.08830938 65490,6917.908,95.438,541.1709999999998,538.375,0.0
49424.0,STARLINK-3135,PAYLOAD,2023-01-11 06:02:07,15.08832953,0.0001921,53.2151,7.1137,62.2939,297.8247,0.00035905,5.429999999999999e-05,0.0,0 STARLINK-3135,1 49424U 21104S   23011.25147727  .00005430  00000-0  35905-3 0  9990,2 49424  53.2151   7.1137 0001921  62.2939 297.8247 15.08832953 65571,6917.901999999999,95.438,541.096,538.438,0.0
49424.0,STARLINK-3135,PAYLOAD,2023-01-11 17:09:49,15.08836284,0.0001878,53.2163,5.0322,65.0295,295.0892,0.00062713,9.706e-05,0.0,0 STARLINK-3135,1 49424U 21104S   23011.71516080  .00009706  00000-0  62713-3 0  9990,2 49424  53.2163   5.0322 0001878  65.0295 295.0892 15.08836284 64569,6917.892,95.438,541.056,538.4580000000002,0.0
49424.0,STARLINK-3135,PAYLOAD,2023-01-12 05:52:55,15.08845153,0.0001953,53.2164,2.6544,66.1088,294.0108,0.00060316,9.326e-05,0.0,0 STARLINK-3135,1 49424U 21104S   23012.24508115  .00009326  00000-0  60316-3 0  9994,2 49424  53.2164   2.6544 0001953  66.1088 294.0108 15.08845153 64648,6917.865,95.437,541.081,538.379,0.0
49424.0,STARLINK-3135,PAYLOAD,2023-01-13 02:32:55,15.08843967,0.0001605,53.2162,358.7882,70.2256,289.8909,0.00032809,4.938e-05,0.0,0 STARLINK-3135,1 49424U 21104S   23013.10620230  .00004938  00000-0  32809-3 0  9993,2 49424  53.2162 358.7882 0001605  70.2256 289.8909 15.08843967 65859,6917.868,95.437,540.844,538.623,0.0
